GLOBALSTAR M023 [+]     
1 25621U 99004A   23271.61070478 -.00000210  00000+0 -59140-3 0  9992
2 25621  52.0103 164.3116 0009569 174.6085 263.0655 12.62444434136462
GLOBALSTAR M040 [-]     
1 25622U 99004B   23271.20542546 -.00000046  00000+0  32476-3 0  9997
2 25622  51.9907 168.7849 0001214  77.6455  90.7842 12.61955025135965
GLOBALSTAR M038 [-]     
1 25624U 99004D   23271.65027507 -.00000065  00000+0  24958-3 0  9990
2 25624  51.9965  78.7323 0001889 158.0060 282.1922 12.32484790124993
GLOBALSTAR M022 [-]     
1 25649U 99012A   23270.99991007 -.00000107  00000+0 -24590-3 0  9997
2 25649  52.0030 198.5557 0003132  16.9024  63.2589 12.02469489100806
GLOBALSTAR M041 [-]     
1 25650U 99012B   23271.58841615 -.00000040  00000+0  59020-3 0  9995
2 25650  52.0026  59.2707 0002484 141.8506 218.2506 11.96647235103145
GLOBALSTAR M046 [-]     
1 25651U 99012C   23271.24662323 -.00000004  00000+0  93813-3 0  9994
2 25651  52.0043 170.9386 0002900  73.6636 107.1193 12.09378432107684
GLOBALSTAR M037 [+]     
1 25652U 99012D   23271.49836212 -.00000060  00000+0  24355-3 0  9999
2 25652  52.0000 295.5155 0001571 231.4124 275.3509 12.62383642131993
